start=new Date('2022-09-22T00:00:00.000Z').valueOf();
sats=[{"APOAPSIS":"534.306","MEAN_MOTION_DDOT":"0.0000000000000","TLE_LINE1":"1 47669U 21012BB  22264.45576275  .00017010  00000-0  10149-2 0  9991","REV_AT_EPOCH":"9063","ECCENTRICITY":"0.00027760","EPHEMERIS_TYPE":"0","REF_FRAME":"TEME","NORAD_CAT_ID":"47669","FILE":"3579752","MEAN_MOTION":"15.11250390","CENTER_NAME":"EARTH","MEAN_MOTION_DOT":"0.00017010","RA_OF_ASC_NODE":"253.4464","COUNTRY_CODE":"US","INCLINATION":"53.0523","SEMIMAJOR_AXIS":"6910.523","MEAN_ANOMALY":"266.2519","MEAN_ELEMENT_THEORY":"SGP4","LAUNCH_DATE":"2021-02-16","EPOCH":"2022-09-21T10:56:17.901600","PERIOD":"95.285","PERIAPSIS":"530.469","OBJECT_NAME":"STARLINK-2060","DECAY_DATE":null,"CLASSIFICATION_TYPE":"U","ARG_OF_PERICENTER":"93.8789","BSTAR":"0.00101490000000","GP_ID":"213189512","OBJECT_ID":"2021-012BB","TLE_LINE2":"2 47669  53.0523 253.4464 0002776  93.8789 266.2519 15.11250390 90632","SITE":"AFETR","TIME_SYSTEM":"UTC","ELEMENT_SET_NO":"999","RCS_SIZE":"LARGE","OBJECT_TYPE":"PAYLOAD"},{"PERIAPSIS":"546.097","OBJECT_NAME":"STARLINK-2062","DECAY_DATE":null,"CLASSIFICATION_TYPE":"U","GP_ID":"213190764","OBJECT_ID":"2021-012BC","ARG_OF_PERICENTER":"62.5390","BSTAR":"0.00000108370000","TLE_LINE2":"2 47670  53.0567 329.5138 0001642  62.5390 297.5766 15.06393357 89620","TIME_SYSTEM":"UTC","SITE":"AFETR","ELEMENT_SET_NO":"999","RCS_SIZE":"LARGE","OBJECT_TYPE":"PAYLOAD","APOAPSIS":"548.371","REV_AT_EPOCH":"8962","TLE_LINE1":"1 47670U 21012BC  22264.89284977 -.00000265  00000-0  10837-5 0  9998","ECCENTRICITY":"0.00016420","MEAN_MOTION_DDOT":"0.0000000000000","REF_FRAME":"TEME","EPHEMERIS_TYPE":"0","MEAN_MOTION_DOT":"-0.00000265","CENTER_NAME":"EARTH","RA_OF_ASC_NODE":"329.5138","MEAN_MOTION":"15.06393357","FILE":"3579752","NORAD_CAT_ID":"47670","SEMIMAJOR_AXIS":"6925.369","MEAN_ANOMALY":"297.5766","MEAN_ELEMENT_THEORY":"SGP4","COUNTRY_CODE":"US","INCLINATION":"53.0567","EPOCH":"2022-09-21T21:25:42.220128","PERIOD":"95.593","LAUNCH_DATE":"2021-02-16"},{"PERIAPSIS":"546.288","CLASSIFICATION_TYPE":"U","DECAY_DATE":null,"OBJECT_NAME":"STARLINK-2064","BSTAR":"-0.00008745300000","ARG_OF_PERICENTER":"80.3998","OBJECT_ID":"2021-012BD","GP_ID":"213190506","TLE_LINE2":"2 47671  53.0553 329.5830 0001327  80.3998 279.7140 15.06402278 89639","ELEMENT_SET_NO":"999","TIME_SYSTEM":"UTC","SITE":"AFETR","RCS_SIZE":"LARGE","OBJECT_TYPE":"PAYLOAD","APOAPSIS":"548.126","MEAN_MOTION_DDOT":"0.0000000000000","ECCENTRICITY":"0.00013270","REV_AT_EPOCH":"8963","TLE_LINE1":"1 47671U 21012BD  22264.87441661 -.00001584  00000-0 -87453-4 0  9995","EPHEMERIS_TYPE":"0","REF_FRAME":"TEME","MEAN_MOTION":"15.06402278","FILE":"3579752","NORAD_CAT_ID":"47671","RA_OF_ASC_NODE":"329.5830","MEAN_MOTION_DOT":"-0.00001584","CENTER_NAME":"EARTH","INCLINATION":"53.0553","COUNTRY_CODE":"US","SEMIMAJOR_AXIS":"6925.342","MEAN_ANOMALY":"279.7140","MEAN_ELEMENT_THEORY":"SGP4","LAUNCH_DATE":"2021-02-16","EPOCH":"2022-09-21T20:59:09.595104","PERIOD":"95.592"},{"INCLINATION":"53.0549","COUNTRY_CODE":"US","MEAN_ANOMALY":"280.0991","SEMIMAJOR_AXIS":"6925.354","MEAN_ELEMENT_THEORY":"SGP4","LAUNCH_DATE":"2021-02-16","PERIOD":"95.592","EPOCH":"2022-09-21T10:55:24.087360","EPHEMERIS_TYPE":"0","REF_FRAME":"TEME","FILE":"3579752","NORAD_CAT_ID":"47672","MEAN_MOTION":"15.06398364","RA_OF_ASC_NODE":"321.4900","CENTER_NAME":"EARTH","MEAN_MOTION_DOT":"0.00001219","APOAPSIS":"548.165","MEAN_MOTION_DDOT":"0.0000000000000","ECCENTRICITY":"0.00013670","TLE_LINE1":"1 47672U 21012BE  22264.45513990  .00001219  00000-0  10070-3 0  9998","REV_AT_EPOCH":"8968","RCS_SIZE":"LARGE","OBJECT_TYPE":"PAYLOAD","TLE_LINE2":"2 47672  53.0549 321.4900 0001367  80.0152 280.0991 15.06398364 89681","ELEMENT_SET_NO":"999","TIME_SYSTEM":"UTC","SITE":"AFETR","DECAY_DATE":null,"OBJECT_NAME":"STARLINK-2065","CLASSIFICATION_TYPE":"U","BSTAR":"0.00010070000000","ARG_OF_PERICENTER":"80.0152","OBJECT_ID":"2021-012BE","GP_ID":"213189262","PERIAPSIS":"546.272"},{"ECCENTRICITY":"0.00013560","TLE_LINE1":"1 47673U 21012BF  22264.23306153 -.00000121  00000-0  10762-4 0  9997","REV_AT_EPOCH":"8952","MEAN_MOTION_DDOT":"0.0000000000000","APOAPSIS":"548.147","PERIOD":"95.592","EPOCH":"2022-09-21T05:35:36.516192","LAUNCH_DATE":"2021-02-16","SEMIMAJOR_AXIS":"6925.343","MEAN_ANOMALY":"290.1052","MEAN_ELEMENT_THEORY":"SGP4","INCLINATION":"53.0562","COUNTRY_CODE":"US","RA_OF_ASC_NODE":"332.4867","CENTER_NAME":"EARTH","MEAN_MOTION_DOT":"-0.00000121","MEAN_MOTION":"15.06401710","FILE":"3579752","NORAD_CAT_ID":"47673","REF_FRAME":"TEME","EPHEMERIS_TYPE":"0","OBJECT_ID":"2021-012BF","GP_ID":"213190013","BSTAR":"0.00001076200000","ARG_OF_PERICENTER":"70.0083","OBJECT_NAME":"STARLINK-2066","DECAY_DATE":null,"CLASSIFICATION_TYPE":"U","PERIAPSIS":"546.269","OBJECT_TYPE":"PAYLOAD","RCS_SIZE":"LARGE","ELEMENT_SET_NO":"999","TIME_SYSTEM":"UTC","SITE":"AFETR","TLE_LINE2":"2 47673  53.0562 332.4867 0001356  70.0083 290.1052 15.06401710 89524"},{"APOAPSIS":"548.161","TLE_LINE1":"1 47674U 21012BG  22264.31321270  .00001040  00000-0  88720-4 0  9993","REV_AT_EPOCH":"8954","ECCENTRICITY":"0.00013250","MEAN_MOTION_DDOT":"0.0000000000000","SEMIMAJOR_AXIS":"6925.378","MEAN_ELEMENT_THEORY":"SGP4","MEAN_ANOMALY":"284.3186","COUNTRY_CODE":"US","INCLINATION":"53.0564","EPOCH":"2022-09-21T07:31:01.577280","PERIOD":"95.593","LAUNCH_DATE":"2021-02-16","REF_FRAME":"TEME","EPHEMERIS_TYPE":"0","CENTER_NAME":"EARTH","MEAN_MOTION_DOT":"0.00001040","RA_OF_ASC_NODE":"332.1041","NORAD_CAT_ID":"47674","FILE":"3579752","MEAN_MOTION":"15.06390392","OBJECT_NAME":"STARLINK-2067","DECAY_DATE":null,"CLASSIFICATION_TYPE":"U","GP_ID":"213190264","OBJECT_ID":"2021-012BG","ARG_OF_PERICENTER":"75.7950","BSTAR":"0.00008872000000","PERIAPSIS":"546.325","RCS_SIZE":"LARGE","OBJECT_TYPE":"PAYLOAD","TLE_LINE2":"2 47674  53.0564 332.1041 0001325  75.7950 284.3186 15.06390392 89547","SITE":"AFETR","TIME_SYSTEM":"UTC","ELEMENT_SET_NO":"999"},{"BSTAR":"0.00009215200000","ARG_OF_PERICENTER":"89.6227","OBJECT_ID":"2021-012BH","GP_ID":"213191007","DECAY_DATE":null,"OBJECT_NAME":"STARLINK-2078","CLASSIFICATION_TYPE":"U","PERIAPSIS":"546.398","OBJECT_TYPE":"PAYLOAD","RCS_SIZE":"LARGE","ELEMENT_SET_NO":"999","TIME_SYSTEM":"UTC","SITE":"AFETR","TLE_LINE2":"2 47675  53.0557 332.1443 0001188  89.6227 270.4899 15.06397682 89540","MEAN_MOTION_DDOT":"0.0000000000000","ECCENTRICITY":"0.00011880","REV_AT_EPOCH":"8954","TLE_LINE1":"1 47675U 21012BH  22264.30678455  .00001091  00000-0  92152-4 0  9993","APOAPSIS":"548.043","LAUNCH_DATE":"2021-02-16","EPOCH":"2022-09-21T07:21:46.185120","PERIOD":"95.592","INCLINATION":"53.0557","COUNTRY_CODE":"US","SEMIMAJOR_AXIS":"6925.356","MEAN_ANOMALY":"270.4899","MEAN_ELEMENT_THEORY":"SGP4","NORAD_CAT_ID":"47675","FILE":"3579752","MEAN_MOTION":"15.06397682","RA_OF_ASC_NODE":"332.1443","CENTER_NAME":"EARTH","MEAN_MOTION_DOT":"0.00001091","EPHEMERIS_TYPE":"0","REF_FRAME":"TEME"},{"REF_FRAME":"TEME","EPHEMERIS_TYPE":"0","CENTER_NAME":"EARTH","MEAN_MOTION_DOT":"0.00000305","RA_OF_ASC_NODE":"219.7762","FILE":"3579752","MEAN_MOTION":"15.06396675","NORAD_CAT_ID":"47676","SEMIMAJOR_AXIS":"6925.359","MEAN_ANOMALY":"291.6608","MEAN_ELEMENT_THEORY":"SGP4","COUNTRY_CODE":"US","INCLINATION":"53.0518","PERIOD":"95.592","EPOCH":"2022-09-21T19:59:26.727072","LAUNCH_DATE":"2021-02-16","APOAPSIS":"548.418","REV_AT_EPOCH":"9114","TLE_LINE1":"1 47676U 21012BJ  22264.83294823  .00000305  00000-0  39414-4 0  9994","ECCENTRICITY":"0.00017250","MEAN_MOTION_DDOT":"0.0000000000000","TLE_LINE2":"2 47676  53.0518 219.7762 0001725  68.4565 291.6608 15.06396675 91142","SITE":"AFETR","TIME_SYSTEM":"UTC","ELEMENT_SET_NO":"999","RCS_SIZE":"LARGE","OBJECT_TYPE":"PAYLOAD","PERIAPSIS":"546.029","DECAY_DATE":null,"OBJECT_NAME":"STARLINK-2083","CLASSIFICATION_TYPE":"U","GP_ID":"213189763","OBJECT_ID":"2021-012BJ","ARG_OF_PERICENTER":"68.4565","BSTAR":"0.00003941400000"},{"MEAN_MOTION_DDOT":"0.0000000000000","REV_AT_EPOCH":"8932","TLE_LINE1":"1 47677U 21012BK  22264.75735991  .00001925  00000-0  14807-3 0  9999","ECCENTRICITY":"0.00015600","APOAPSIS":"548.278","LAUNCH_DATE":"2021-02-16","PERIOD":"95.592","EPOCH":"2022-09-21T18:10:35.896224","COUNTRY_CODE":"US","INCLINATION":"53.0563","SEMIMAJOR_AXIS":"6925.333","MEAN_ANOMALY":"302.4594","MEAN_ELEMENT_THEORY":"SGP4","NORAD_CAT_ID":"47677","FILE":"3579752","MEAN_MOTION":"15.06405206","MEAN_MOTION_DOT":"0.00001925","CENTER_NAME":"EARTH","RA_OF_ASC_NODE":"350.1141","EPHEMERIS_TYPE":"0","REF_FRAME":"TEME","ARG_OF_PERICENTER":"57.6546","BSTAR":"0.00014807000000","GP_ID":"213189513","OBJECT_ID":"2021-012BK","DECAY_DATE":null,"CLASSIFICATION_TYPE":"U","OBJECT_NAME":"STARLINK-2090","PERIAPSIS":"546.117","OBJECT_TYPE":"PAYLOAD","RCS_SIZE":"LARGE","SITE":"AFETR","TIME_SYSTEM":"UTC","ELEMENT_SET_NO":"999","TLE_LINE2":"2 47677  53.0563 350.1141 0001560  57.6546 302.4594 15.06405206 89323"},{"PERIAPSIS":"546.110","DECAY_DATE":null,"OBJECT_NAME":"STARLINK-2095","CLASSIFICATION_TYPE":"U","ARG_OF_PERICENTER":"58.9496","BSTAR":"-0.00002456400000","GP_ID":"213190765","OBJECT_ID":"2021-012BM","TLE_LINE2":"2 47679  53.0562 352.0878 0001600  58.9496 301.1650 15.06398426 89273","SITE":"AFETR","TIME_SYSTEM":"UTC","ELEMENT_SET_NO":"999","RCS_SIZE":"LARGE","OBJECT_TYPE":"PAYLOAD","APOAPSIS":"548.326","MEAN_MOTION_DDOT":"0.0000000000000","REV_AT_EPOCH":"8927","TLE_LINE1":"1 47679U 21012BM  22264.32242747 -.00000647  00000-0 -24564-4 0  9990","ECCENTRICITY":"0.00016000","EPHEMERIS_TYPE":"0","REF_FRAME":"TEME","NORAD_CAT_ID":"47679","FILE":"3579752","MEAN_MOTION":"15.06398426","MEAN_MOTION_DOT":"-0.00000647","CENTER_NAME":"EARTH","RA_OF_ASC_NODE":"352.0878","COUNTRY_CODE":"US","INCLINATION":"53.0562","MEAN_ELEMENT_THEORY":"SGP4","SEMIMAJOR_AXIS":"6925.353","MEAN_ANOMALY":"301.1650","LAUNCH_DATE":"2021-02-16","EPOCH":"2022-09-21T07:44:17.733408","PERIOD":"95.592"}];
